{"type": "FeatureCollection", "features": [ {"type": "Feature", "properties": {"norad_id": 67030, "name": "STARLINK-36138", "group": "last-30-days", "lat": -29.574390433230718, "lon": -30.19226052776014, "alt_km": 344.66794854663476, "timestamp": "2025-12-24T03:53:28.364579+00:00", "meta": {"OBJECT_NAME": "STARLINK-36138", "OBJECT_ID": "2025-294A", "EPOCH": "2025-12-23T20:00:01.000224", "MEAN_MOTION": 15.77094478, "ECCENTRICITY": 0.0001345, "INCLINATION": 42.9996, "RA_OF_ASC_NODE": 114.289, "ARG_OF_PERICENTER": 285.6842, "MEAN_ANOMALY": 232.4787, "EPHEMERIS_TYPE": 0, "CLASSIFICATION_TYPE": "U", "NORAD_CAT_ID": 67030, "ELEMENT_SET_NO": 999, "REV_AT_EPOCH": 189, "BSTAR": -0.012877, "MEAN_MOTION_DOT": -0.01887556, "MEAN_MOTION_DDOT": 0}, "tle": {"line1": "1 67030U 25294A   25357.83334491 -.01887556  00000+0 -12877-1 0  9992", "line2": "2 67030  42.9996 114.2890 0001345 285.6842 232.4787 15.77094478  1893"}}, "geometry": {"type": "Point", "coordinates": [-30.19226052776014, -29.574390433230718]}}, {"type": "Feature", "properties": {"norad_id": 67031, "name": "STARLINK-36150", "group": "last-30-days", "lat": -30.531729421743073, "lon": -28.44752329795521, "alt_km": 344.78156775605385, "timestamp": "2025-12-24T03:53:28.364590+00:00", "meta": {"OBJECT_NAME": "STARLINK-36150", "OBJECT_ID": "2025-294B", "EPOCH": "2025-12-23T20:00:01.000224", "MEAN_MOTION": 15.77107008, "ECCENTRICITY": 0.0001379, "INCLINATION": 42.9998, "RA_OF_ASC_NODE": 114.2843, "ARG_OF_PERICENTER": 291.2041, "MEAN_ANOMALY": 228.7423, "EPHEMERIS_TYPE": 0, "CLASSIFICATION_TYPE": "U", "NORAD_CAT_ID": 67031, "ELEMENT_SET_NO": 999, "REV_AT_EPOCH": 208, "BSTAR": -0.012931, "MEAN_MOTION_DOT": -0.01895427, "MEAN_MOTION_DDOT": 0}, "tle": {"line1": "1 67031U 25294B   25357.83334491 -.01895427  00000+0 -12931-1 0  9990", "line2": "2 67031  42.9998 114.2843 0001379 291.2041 228.7423 15.77107008  2086"}}, "geometry": {"type": "Point", "coordinates": [-28.44752329795521, -30.531729421743073]}}, {"type": "Feature", "properties": {"norad_id": 67032, "name": "STARLINK-36131", "group": "last-30-days", "lat": -32.65124271623744, "lon": -24.2798917394712, "alt_km": 344.6228691212891, "timestamp": "2025-12-24T03:53:28.364600+00:00", "meta": {"OBJECT_NAME": "STARLINK-36131", "OBJECT_ID": "2025-294C", "EPOCH": "2025-12-23T20:00:01.000224", "MEAN_MOTION": 15.77088755, "ECCENTRICITY": 0.0001518, "INCLINATION": 42.9999, "RA_OF_ASC_NODE": 114.2737, "ARG_OF_PERICENTER": 281.2312, "MEAN_ANOMALY": 242.8797, "EPHEMERIS_TYPE": 0, "CLASSIFICATION_TYPE": "U", "NORAD_CAT_ID": 67032, "ELEMENT_SET_NO": 999, "REV_AT_EPOCH": 189, "BSTAR": -0.012902, "MEAN_MOTION_DOT": -0.01890519, "MEAN_MOTION_DDOT": 0}, "tle": {"line1": "1 67032U 25294C   25357.83334491 -.01890519  00000+0 -12902-1 0  9996", "line2": "2 67032  42.9999 114.2737 0001518 281.2312 242.8797 15.77088755  1891"}}, "geometry": {"type": "Point", "coordinates": [-24.2798917394712, -32.65124271623744]}}, {"type": "Feature", "properties": {"norad_id": 67033, "name": "STARLINK-36137", "group": "last-30-days", "lat": -31.600592850199273, "lon": -26.40222252927875, "alt_km": 344.78654106063914, "timestamp": "2025-12-24T03:53:28.364610+00:00", "meta": {"OBJECT_NAME": "STARLINK-36137", "OBJECT_ID": "2025-294D", "EPOCH": "2025-12-23T20:00:01.000224", "MEAN_MOTION": 15.77097837, "ECCENTRICITY": 0.0001456, "INCLINATION": 42.9995, "RA_OF_ASC_NODE": 114.2792, "ARG_OF_PERICENTER": 290.1254, "MEAN_ANOMALY": 231.89, "EPHEMERIS_TYPE": 0, "CLASSIFICATION_TYPE": "U", "NORAD_CAT_ID": 67033, "ELEMENT_SET_NO": 999, "REV_AT_EPOCH": 189, "BSTAR": -0.012928, "MEAN_MOTION_DOT": -0.01894438, "MEAN_MOTION_DDOT": 0}, "tle": {"line1": "1 67033U 25294D   25357.83334491 -.01894438  00000+0 -12928-1 0  9999", "line2": "2 67033  42.9995 114.2792 0001456 290.1254 231.8900 15.77097837  1899"}}, "geometry": {"type": "Point", "coordinates": [-26.40222252927875, -31.600592850199273]}}, {"type": "Feature", "properties": {"norad_id": 67034, "name": "STARLINK-36140", "group": "last-30-days", "lat": -33.789749636595516, "lon": -21.83270220508618, "alt_km": 344.0644044455066, "timestamp": "2025-12-24T03:53:28.364620+00:00", "meta": {"OBJECT_NAME": "STARLINK-36140", "OBJECT_ID": "2025-294E", "EPOCH": "2025-12-23T06:00:00.999648", "MEAN_MOTION": 15.79541048, "ECCENTRICITY": 0.0001539, "INCLINATION": 42.9995, "RA_OF_ASC_NODE": 117.8212, "ARG_OF_PERICENTER": 280.0207, "MEAN_ANOMALY": 167.8207, "EPHEMERIS_TYPE": 0, "CLASSIFICATION_TYPE": "U", "NORAD_CAT_ID": 67034, "ELEMENT_SET_NO": 999, "REV_AT_EPOCH": 180, "BSTAR": -0.011686799, "MEAN_MOTION_DOT": -0.01912055, "MEAN_MOTION_DDOT": 0}, "tle": {"line1": "1 67034U 25294E   25357.25001157 -.01912055  00000+0 -11687-1 0  9993", "line2": "2 67034  42.9995 117.8212 0001539 280.0207 167.8207 15.79541048  1803"}}, "geometry": {"type": "Point", "coordinates": [-21.83270220508618, -33.789749636595516]}}, {"type": "Feature", "properties": {"norad_id": 67035, "name": "STARLINK-36085", "group": "last-30-days", "lat": -35.741271529068136, "lon": -17.179738367768632, "alt_km": 344.6953862324326, "timestamp": "2025-12-24T03:53:28.364631+00:00", "meta": {"OBJECT_NAME": "STARLINK-36085", "OBJECT_ID": "2025-294F", "EPOCH": "2025-12-23T20:00:01.000224", "MEAN_MOTION": 15.77062339, "ECCENTRICITY": 0.000166, "INCLINATION": 42.9997, "RA_OF_ASC_NODE": 114.2567, "ARG_OF_PERICENTER": 277.5451, "MEAN_ANOMALY": 253.2662, "EPHEMERIS_TYPE": 0, "CLASSIFICATION_TYPE": "U", "NORAD_CAT_ID": 67035, "ELEMENT_SET_NO": 999, "REV_AT_EPOCH": 189, "BSTAR": -0.013176, "MEAN_MOTION_DOT": -0.01923358, "MEAN_MOTION_DDOT": 0}, "tle": {"line1": "1 67035U 25294F   25357.83334491 -.01923358  00000+0 -13176-1 0  9991", "line2": "2 67035  42.9997 114.2567 0001660 277.5451 253.2662 15.77062339  1890"}}, "geometry": {"type": "Point", "coordinates": [-17.179738367768632, -35.741271529068136]}}, {"type": "Feature", "properties": {"norad_id": 67036, "name": "STARLINK-36125", "group": "last-30-days", "lat": -34.754122415972105, "lon": -19.612321555656152, "alt_km": 344.8857326450852, "timestamp": "2025-12-24T03:53:28.364644+00:00", "meta": {"OBJECT_NAME": "STARLINK-36125", "OBJECT_ID": "2025-294G", "EPOCH": "2025-12-23T20:00:01.000224", "MEAN_MOTION": 15.77066527, "ECCENTRICITY": 0.0001442, "INCLINATION": 42.9998, "RA_OF_ASC_NODE": 114.2627, "ARG_OF_PERICENTER": 286.6533, "MEAN_ANOMALY": 241.9172, "EPHEMERIS_TYPE": 0, "CLASSIFICATION_TYPE": "U", "NORAD_CAT_ID": 67036, "ELEMENT_SET_NO": 999, "REV_AT_EPOCH": 208, "BSTAR": -0.01299, "MEAN_MOTION_DOT": -0.01899934, "MEAN_MOTION_DDOT": 0}, "tle": {"line1": "1 67036U 25294G   25357.83334491 -.01899934  00000+0 -12990-1 0  9997", "line2": "2 67036  42.9998 114.2627 0001442 286.6533 241.9172 15.77066527  2084"}}, "geometry": {"type": "Point", "coordinates": [-19.612321555656152, -34.754122415972105]}}, {"type": "Feature", "properties": {"norad_id": 67037, "name": "STARLINK-35732", "group": "last-30-days", "lat": -36.72309912032323, "lon": -14.561356115115695, "alt_km": 344.9537844594279, "timestamp": "2025-12-24T03:53:28.364654+00:00", "meta": {"OBJECT_NAME": "STARLINK-35732", "OBJECT_ID": "2025-294H", "EPOCH": "2025-12-23T20:00:01.000224", "MEAN_MOTION": 15.77017986, "ECCENTRICITY": 0.0001443, "INCLINATION": 42.9995, "RA_OF_ASC_NODE": 114.2511, "ARG_OF_PERICENTER": 283.8201, "MEAN_ANOMALY": 249.3571, "EPHEMERIS_TYPE": 0, "CLASSIFICATION_TYPE": "U", "NORAD_CAT_ID": 67037, "ELEMENT_SET_NO": 999, "REV_AT_EPOCH": 200, "BSTAR": -0.012844, "MEAN_MOTION_DOT": -0.01877762, "MEAN_MOTION_DDOT": 0}, "tle": {"line1": "1 67037U 25294H   25357.83334491 -.01877762  00000+0 -12844-1 0  9991", "line2": "2 67037  42.9995 114.2511 0001443 283.8201 249.3571 15.77017986  2008"}}, "geometry": {"type": "Point", "coordinates": [-14.561356115115695, -36.72309912032323]}}, {"type": "Feature", "properties": {"norad_id": 67038, "name": "STARLINK-35775", "group": "last-30-days", "lat": -37.552947842746725, "lon": -12.160663347569479, "alt_km": 345.08093747117255, "timestamp": "2025-12-24T03:53:28.364664+00:00", "meta": {"OBJECT_NAME": "STARLINK-35775", "OBJECT_ID": "2025-294J", "EPOCH": "2025-12-23T20:00:01.000224", "MEAN_MOTION": 15.77016452, "ECCENTRICITY": 0.0001381, "INCLINATION": 42.9998, "RA_OF_ASC_NODE": 114.2456, "ARG_OF_PERICENTER": 287.4953, "MEAN_ANOMALY": 247.7814, "EPHEMERIS_TYPE": 0, "CLASSIFICATION_TYPE": "U", "NORAD_CAT_ID": 67038, "ELEMENT_SET_NO": 999, "REV_AT_EPOCH": 200, "BSTAR": -0.012922, "MEAN_MOTION_DOT": -0.018876, "MEAN_MOTION_DDOT": 0}, "tle": {"line1": "1 67038U 25294J   25357.83334491 -.01887600  00000+0 -12922-1 0  9991", "line2": "2 67038  42.9998 114.2456 0001381 287.4953 247.7814 15.77016452  2004"}}, "geometry": {"type": "Point", "coordinates": [-12.160663347569479, -37.552947842746725]}}, {"type": "Feature", "properties": {"norad_id": 67039, "name": "STARLINK-35705", "group": "last-30-days", "lat": -39.09412564195537, "lon": -7.078557221178356, "alt_km": 345.1701536822957, "timestamp": "2025-12-24T03:53:28.364675+00:00", "meta": {"OBJECT_NAME": "STARLINK-35705", "OBJECT_ID": "2025-294K", "EPOCH": "2025-12-23T20:00:01.000224", "MEAN_MOTION": 15.76992528, "ECCENTRICITY": 0.000127, "INCLINATION": 43, "RA_OF_ASC_NODE": 114.2349, "ARG_OF_PERICENTER": 284.7642, "MEAN_ANOMALY": 254.8247, "EPHEMERIS_TYPE": 0, "CLASSIFICATION_TYPE": "U", "NORAD_CAT_ID": 67039, "ELEMENT_SET_NO": 999, "REV_AT_EPOCH": 189, "BSTAR": -0.012915, "MEAN_MOTION_DOT": -0.01884815, "MEAN_MOTION_DDOT": 0}, "tle": {"line1": "1 67039U 25294K   25357.83334491 -.01884815  00000+0 -12915-1 0  9999", "line2": "2 67039  43.0000 114.2349 0001270 284.7642 254.8247 15.76992528  1895"}}, "geometry": {"type": "Point", "coordinates": [-7.078557221178356, -39.09412564195537]}}]}